[{"OBJECT_NAME":"MERIDIAN 7","OBJECT_ID":"2014-069A","EPOCH":"2026-03-04T23:47:27.000672","MEAN_MOTION":2.00583666,"ECCENTRICITY":0.66883237,"INCLINATION":63.4575,"RA_OF_ASC_NODE":225.6657,"ARG_OF_PERICENTER":271.2358,"MEAN_ANOMALY":18.9648,"EPHEMERIS_TYPE":0,"CLASSIFICATION_TYPE":"U","NORAD_CAT_ID":40296,"ELEMENT_SET_NO":999,"REV_AT_EPOCH":8314,"BSTAR":0,"MEAN_MOTION_DOT":9.8e-7,"MEAN_MOTION_DDOT":0},{"OBJECT_NAME":"GSAT-16","OBJECT_ID":"2014-078A","EPOCH":"2026-03-05T04:57:38.614752","MEAN_MOTION":1.0027256,"ECCENTRICITY":0.00047235,"INCLINATION":0.0311,"RA_OF_ASC_NODE":258.3109,"ARG_OF_PERICENTER":177.1629,"MEAN_ANOMALY":216.9561,"EPHEMERIS_TYPE":0,"CLASSIFICATION_TYPE":"U","NORAD_CAT_ID":40332,"ELEMENT_SET_NO":999,"REV_AT_EPOCH":4106,"BSTAR":0,"MEAN_MOTION_DOT":7.6e-7,"MEAN_MOTION_DDOT":0},{"OBJECT_NAME":"DIRECTV 14","OBJECT_ID":"2014-078B","EPOCH":"2026-03-04T08:33:38.625984","MEAN_MOTION":1.00276103,"ECCENTRICITY":2.588e-5,"INCLINATION":0.0203,"RA_OF_ASC_NODE":123.6906,"ARG_OF_PERICENTER":52.3431,"MEAN_ANOMALY":15.2398,"EPHEMERIS_TYPE":0,"CLASSIFICATION_TYPE":"U","NORAD_CAT_ID":40333,"ELEMENT_SET_NO":999,"REV_AT_EPOCH":4099,"BSTAR":0,"MEAN_MOTION_DOT":-1.38e-6,"MEAN_MOTION_DDOT":0},{"OBJECT_NAME":"YAMAL 401","OBJECT_ID":"2014-082A","EPOCH":"2026-03-05T04:13:38.615232","MEAN_MOTION":1.00273123,"ECCENTRICITY":6.672e-5,"INCLINATION":0.0094,"RA_OF_ASC_NODE":140.5369,"ARG_OF_PERICENTER":348.9036,"MEAN_ANOMALY":186.8063,"EPHEMERIS_TYPE":0,"CLASSIFICATION_TYPE":"U","NORAD_CAT_ID":40345,"ELEMENT_SET_NO":999,"REV_AT_EPOCH":4087,"BSTAR":0,"MEAN_MOTION_DOT":-2.37e-6,"MEAN_MOTION_DDOT":0},{"OBJECT_NAME":"ASTRA 2G","OBJECT_ID":"2014-089A","EPOCH":"2026-03-05T04:49:38.668800","MEAN_MOTION":1.00271341,"ECCENTRICITY":0.00044372,"INCLINATION":0.0236,"RA_OF_ASC_NODE":9.5027,"ARG_OF_PERICENTER":20.3595,"MEAN_ANOMALY":233.6781,"EPHEMERIS_TYPE":0,"CLASSIFICATION_TYPE":"U","NORAD_CAT_ID":40364,"ELEMENT_SET_NO":999,"REV_AT_EPOCH":4092,"BSTAR":0,"MEAN_MOTION_DOT":0,"MEAN_MOTION_DDOT":0},{"OBJECT_NAME":"FENGYUN 2G","OBJECT_ID":"2014-090A","EPOCH":"2026-03-05T00:46:48.827712","MEAN_MOTION":1.00274286,"ECCENTRICITY":0.00018557,"INCLINATION":5.3757,"RA_OF_ASC_NODE":74.0796,"ARG_OF_PERICENTER":152.4589,"MEAN_ANOMALY":47.6186,"EPHEMERIS_TYPE":0,"CLASSIFICATION_TYPE":"U","NORAD_CAT_ID":40367,"ELEMENT_SET_NO":999,"REV_AT_EPOCH":4095,"BSTAR":0,"MEAN_MOTION_DOT":-3.1e-6,"MEAN_MOTION_DDOT":0},{"OBJECT_NAME":"CZ-3A R/B","OBJECT_ID":"2014-090B","EPOCH":"2026-03-05T00:13:30.940896","MEAN_MOTION":2.26111395,"ECCENTRICITY":0.72708305,"INCLINATION":24.6685,"RA_OF_ASC_NODE":77.2668,"ARG_OF_PERICENTER":176.4469,"MEAN_ANOMALY":195.5518,"EPHEMERIS_TYPE":0,"CLASSIFICATION_TYPE":"U","NORAD_CAT_ID":40368,"ELEMENT_SET_NO":999,"REV_AT_EPOCH":8997,"BSTAR":0.00074913893,"MEAN_MOTION_DOT":8.2e-6,"MEAN_MOTION_DDOT":0},{"OBJECT_NAME":"FENGYUN 2G AKM","OBJECT_ID":"2014-090C","EPOCH":"2026-03-03T09:54:21.784896","MEAN_MOTION":0.9958765,"ECCENTRICITY":0.0047967,"INCLINATION":7.2909,"RA_OF_ASC_NODE":69.8901,"ARG_OF_PERICENTER":172.4056,"MEAN_ANOMALY":187.8566,"EPHEMERIS_TYPE":0,"CLASSIFICATION_TYPE":"U","NORAD_CAT_ID":40369,"ELEMENT_SET_NO":999,"REV_AT_EPOCH":4058,"BSTAR":0,"MEAN_MOTION_DOT":-3.16e-6,"MEAN_MOTION_DDOT":0},{"OBJECT_NAME":"MUOS-3","OBJECT_ID":"2015-002A","EPOCH":"2026-03-05T04:22:38.719776","MEAN_MOTION":1.0027315,"ECCENTRICITY":0.00532365,"INCLINATION":4.3206,"RA_OF_ASC_NODE":42.9853,"ARG_OF_PERICENTER":183.9551,"MEAN_ANOMALY":346.1493,"EPHEMERIS_TYPE":0,"CLASSIFICATION_TYPE":"U","NORAD_CAT_ID":40374,"ELEMENT_SET_NO":999,"REV_AT_EPOCH":4054,"BSTAR":0,"MEAN_MOTION_DOT":-1.35e-6,"MEAN_MOTION_DDOT":0},{"OBJECT_NAME":"INMARSAT 5-F2","OBJECT_ID":"2015-005A","EPOCH":"2026-03-04T01:47:42.775296","MEAN_MOTION":1.00272086,"ECCENTRICITY":5.921e-5,"INCLINATION":0.0201,"RA_OF_ASC_NODE":131.5677,"ARG_OF_PERICENTER":121.4881,"MEAN_ANOMALY":240.6501,"EPHEMERIS_TYPE":0,"CLASSIFICATION_TYPE":"U","NORAD_CAT_ID":40384,"ELEMENT_SET_NO":999,"REV_AT_EPOCH":3994,"BSTAR":0,"MEAN_MOTION_DOT":-2.98e-6,"MEAN_MOTION_DDOT":0},{"OBJECT_NAME":"BREEZE-M R/B","OBJECT_ID":"2015-005B","EPOCH":"2026-03-04T23:36:42.282144","MEAN_MOTION":1.11107029,"ECCENTRICITY":0.75626717,"INCLINATION":27.2802,"RA_OF_ASC_NODE":282.9285,"ARG_OF_PERICENTER":115.7896,"MEAN_ANOMALY":336.3199,"EPHEMERIS_TYPE":0,"CLASSIFICATION_TYPE":"U","NORAD_CAT_ID":40385,"ELEMENT_SET_NO":999,"REV_AT_EPOCH":4499,"BSTAR":0,"MEAN_MOTION_DOT":-2.64e-6,"MEAN_MOTION_DDOT":0},{"OBJECT_NAME":"ABS-3A","OBJECT_ID":"2015-010A","EPOCH":"2026-03-05T03:44:38.931360","MEAN_MOTION":1.00270925,"ECCENTRICITY":0.00017276,"INCLINATION":0.015,"RA_OF_ASC_NODE":138.0629,"ARG_OF_PERICENTER":149.5241,"MEAN_ANOMALY":288.4867,"EPHEMERIS_TYPE":0,"CLASSIFICATION_TYPE":"U","NORAD_CAT_ID":40424,"ELEMENT_SET_NO":999,"REV_AT_EPOCH":4033,"BSTAR":0,"MEAN_MOTION_DOT":-3.5e-7,"MEAN_MOTION_DDOT":0},{"OBJECT_NAME":"EUTELSAT 115 WEST B","OBJECT_ID":"2015-010B","EPOCH":"2026-03-05T04:53:40.156800","MEAN_MOTION":1.00272586,"ECCENTRICITY":1.84e-5,"INCLINATION":0.0301,"RA_OF_ASC_NODE":18.0543,"ARG_OF_PERICENTER":70.7177,"MEAN_ANOMALY":32.6748,"EPHEMERIS_TYPE":0,"CLASSIFICATION_TYPE":"U","NORAD_CAT_ID":40425,"ELEMENT_SET_NO":999,"REV_AT_EPOCH":4035,"BSTAR":0,"MEAN_MOTION_DOT":-3.4e-7,"MEAN_MOTION_DDOT":0},{"OBJECT_NAME":"MMS 1","OBJECT_ID":"2015-011A","EPOCH":"2026-03-05T08:00:01.999872","MEAN_MOTION":0.28330875,"ECCENTRICITY":0.8414109,"INCLINATION":70.7423,"RA_OF_ASC_NODE":350.2191,"ARG_OF_PERICENTER":165.2307,"MEAN_ANOMALY":145.4857,"EPHEMERIS_TYPE":0,"CLASSIFICATION_TYPE":"U","NORAD_CAT_ID":40482,"ELEMENT_SET_NO":999,"REV_AT_EPOCH":133,"BSTAR":0,"MEAN_MOTION_DOT":-1.903e-5,"MEAN_MOTION_DDOT":0},{"OBJECT_NAME":"MMS 2","OBJECT_ID":"2015-011B","EPOCH":"2026-03-05T08:00:01.999872","MEAN_MOTION":0.28330881,"ECCENTRICITY":0.84148384,"INCLINATION":70.7425,"RA_OF_ASC_NODE":350.2212,"ARG_OF_PERICENTER":165.2368,"MEAN_ANOMALY":145.4692,"EPHEMERIS_TYPE":0,"CLASSIFICATION_TYPE":"U","NORAD_CAT_ID":40483,"ELEMENT_SET_NO":999,"REV_AT_EPOCH":133,"BSTAR":0,"MEAN_MOTION_DOT":-1.903e-5,"MEAN_MOTION_DDOT":0},{"OBJECT_NAME":"MMS 3","OBJECT_ID":"2015-011C","EPOCH":"2026-03-05T08:00:01.999872","MEAN_MOTION":0.28330849,"ECCENTRICITY":0.84141234,"INCLINATION":70.7449,"RA_OF_ASC_NODE":350.2259,"ARG_OF_PERICENTER":165.2309,"MEAN_ANOMALY":145.4778,"EPHEMERIS_TYPE":0,"CLASSIFICATION_TYPE":"U","NORAD_CAT_ID":40484,"ELEMENT_SET_NO":999,"REV_AT_EPOCH":133,"BSTAR":0,"MEAN_MOTION_DOT":-1.903e-5,"MEAN_MOTION_DDOT":0},{"OBJECT_NAME":"MMS 4","OBJECT_ID":"2015-011D","EPOCH":"2026-03-05T08:00:01.999872","MEAN_MOTION":0.28330846,"ECCENTRICITY":0.84136246,"INCLINATION":70.743,"RA_OF_ASC_NODE":350.221,"ARG_OF_PERICENTER":165.2382,"MEAN_ANOMALY":145.4635,"EPHEMERIS_TYPE":0,"CLASSIFICATION_TYPE":"U","NORAD_CAT_ID":40485,"ELEMENT_SET_NO":999,"REV_AT_EPOCH":133,"BSTAR":0,"MEAN_MOTION_DOT":-1.903e-5,"MEAN_MOTION_DDOT":0}]
