MERIDIAN 7              
1 40296U 14069A   26063.99128473  .00000098  00000+0  00000+0 0  9996
2 40296  63.4575 225.6657 6688323 271.2358  18.9648  2.00583666 83148
GSAT-16                 
1 40332U 14078A   26064.20669693  .00000076  00000+0  00000+0 0  9992
2 40332   0.0311 258.3109 0004723 177.1629 216.9561  1.00272560 41060
DIRECTV 14              
1 40333U 14078B   26063.35669706 -.00000138  00000+0  00000+0 0  9993
2 40333   0.0203 123.6906 0000258  52.3431  15.2398  1.00276103 40990
YAMAL 401               
1 40345U 14082A   26064.17614138 -.00000237  00000+0  00000+0 0  9991
2 40345   0.0094 140.5369 0000667 348.9036 186.8063  1.00273123 40871
ASTRA 2G                
1 40364U 14089A   26064.20114200  .00000000  00000+0  00000+0 0  9995
2 40364   0.0236   9.5027 0004437  20.3595 233.6781  1.00271341 40929
FENGYUN 2G              
1 40367U 14090A   26064.03250958 -.00000310  00000+0  00000+0 0  9997
2 40367   5.3757  74.0796 0001855 152.4589  47.6186  1.00274286 40955
CZ-3A R/B               
1 40368U 14090B   26064.00938589  .00000820  00000+0  74914-3 0  9992
2 40368  24.6685  77.2668 7270830 176.4469 195.5518  2.26111395 89971
FENGYUN 2G AKM          
1 40369U 14090C   26062.41275214 -.00000316  00000+0  00000+0 0  9997
2 40369   7.2909  69.8901 0047967 172.4056 187.8566  0.99587650 40589
MUOS-3                  
1 40374U 15002A   26064.18239259 -.00000135  00000+0  00000+0 0  9991
2 40374   4.3206  42.9853 0053236 183.9551 346.1493  1.00273150 40549
INMARSAT 5-F2           
1 40384U 15005A   26063.07480064 -.00000298  00000+0  00000+0 0  9994
2 40384   0.0201 131.5677 0000592 121.4881 240.6501  1.00272086 39944
BREEZE-M R/B            
1 40385U 15005B   26063.98382271 -.00000264  00000+0  00000+0 0  9999
2 40385  27.2802 282.9285 7562671 115.7896 336.3199  1.11107029 44992
ABS-3A                  
1 40424U 15010A   26064.15600615 -.00000035  00000+0  00000+0 0  9990
2 40424   0.0150 138.0629 0001727 149.5241 288.4867  1.00270925 40333
EUTELSAT 115 WEST B     
1 40425U 15010B   26064.20393700 -.00000034  00000+0  00000+0 0  9990
2 40425   0.0301  18.0543 0000184  70.7177  32.6748  1.00272586 40357
MMS 1                   
1 40482U 15011A   26064.33335648 -.00001903  00000+0  00000+0 0  9991
2 40482  70.7423 350.2191 8414109 165.2307 145.4857  0.28330875  1332
MMS 2                   
1 40483U 15011B   26064.33335648 -.00001903  00000+0  00000+0 0  9992
2 40483  70.7425 350.2212 8414838 165.2368 145.4692  0.28330881  1339
MMS 3                   
1 40484U 15011C   26064.33335648 -.00001903  00000+0  00000+0 0  9993
2 40484  70.7449 350.2259 8414123 165.2309 145.4778  0.28330849  1338
MMS 4                   
1 40485U 15011D   26064.33335648 -.00001903  00000+0  00000+0 0  9994
2 40485  70.7430 350.2210 8413624 165.2382 145.4635  0.28330846  1331
